NORAD_CAT_ID,OBJECT_NAME,OBJECT_TYPE,EPOCH,MEAN_MOTION,ECCENTRICITY,INCLINATION,RA_OF_ASC_NODE,ARG_OF_PERICENTER,MEAN_ANOMALY,BSTAR,MEAN_MOTION_DOT,MEAN_MOTION_DDOT,TLE_LINE0,TLE_LINE1,TLE_LINE2,SEMIMAJOR_AXIS,PERIOD,APOGEE,PERIGEE,DECAYED
53999.0,STARLINK-5079,PAYLOAD,2024-03-20 14:05:31,15.08836286,0.0001818,53.2191,202.2138,79.0353,281.0843,1.0865e-05,-1.15e-06,0.0,0 STARLINK-5079,1 53999U 22125AM  24080.58716605 -.00000115  00000-0  10865-4 0  9991,2 53999  53.2191 202.2138 0001818  79.0353 281.0843 15.08836286 80901,6917.892,95.438,541.014,538.499,0.0
53999.0,STARLINK-5079,PAYLOAD,2024-03-20 15:40:54,15.08836475,0.0001674,53.2189,201.9162,80.8705,279.2477,3.3062e-05,2.38e-06,0.0,0 STARLINK-5079,1 53999U 22125AM  24080.65340468  .00000238  00000-0  33062-4 0  9998,2 53999  53.2189 201.9162 0001674  80.8705 279.2477 15.08836475 80982,6917.891,95.438,540.914,538.598,0.0
53999.0,STARLINK-5079,PAYLOAD,2024-03-21 13:56:17,15.08839768,0.0001475,53.2165,197.7568,92.9532,267.1628,0.00010914,1.449e-05,0.0,0 STARLINK-5079,1 53999U 22125AM  24081.58076261  .00001449  00000-0  10914-3 0  9993,2 53999  53.2165 197.7568 0001475  92.9532 267.1628 15.08839768 81050,6917.881,95.438,540.766,538.726,0.0
53999.0,STARLINK-5079,PAYLOAD,2024-03-22 12:11:42,15.0884046,0.000171,53.2179,193.5965,76.0015,284.1168,0.0001647,2.334e-05,0.0,0 STARLINK-5079,1 53999U 22125AM  24082.50812632  .00002334  00000-0  16470-3 0  9993,2 53999  53.2179 193.5965 0001710  76.0015 284.1168 15.08840460 81263,6917.879,95.438,540.927,538.561,0.0
53999.0,STARLINK-5079,PAYLOAD,2024-03-22 13:47:05,15.08842918,0.0001746,53.218,193.2985,75.7612,284.3574,0.00019915,2.883e-05,0.0,0 STARLINK-5079,1 53999U 22125AM  24082.57436525  .00002883  00000-0  19915-3 0  9999,2 53999  53.2180 193.2985 0001746  75.7612 284.3574 15.08842918 81209,6917.871,95.437,540.944,538.529,0.0
53999.0,STARLINK-5079,PAYLOAD,2024-03-23 13:37:52,15.08845034,0.0001547,53.217,188.8335,106.8362,253.2799,4.109e-05,3.66e-06,0.0,0 STARLINK-5079,1 53999U 22125AM  24083.56796386  .00000366  00000-0  41090-4 0  9997,2 53999  53.2170 188.8335 0001547 106.8362 253.2799 15.08845034 81424,6917.865,95.437,540.8,538.66,0.0
53999.0,STARLINK-5079,PAYLOAD,2024-03-24 11:53:15,15.08865846,0.0001656,53.2178,184.6798,97.0478,263.0702,0.00054308,8.372e-05,0.0,0 STARLINK-5079,1 53999U 22125AM  24084.49531447  .00008372  00000-0  54308-3 0  9995,2 53999  53.2178 184.6798 0001656  97.0478 263.0702 15.08865846 81560,6917.801,95.436,540.812,538.521,0.0
53999.0,STARLINK-5079,PAYLOAD,2024-03-24 13:28:37,15.08875671,0.0001569,53.2173,184.3716,104.2378,255.8788,0.00067876,0.00010541,0.0,0 STARLINK-5079,1 53999U 22125AM  24084.56154870  .00010541  00000-0  67876-3 0  9999,2 53999  53.2173 184.3716 0001569 104.2378 255.8788 15.08875671 81509,6917.771,95.435,540.722,538.551,0.0
53999.0,STARLINK-5079,PAYLOAD,2024-03-24 23:00:57,15.08858912,0.000173,53.2175,182.5924,103.5467,256.5718,0.00036397,5.512e-05,0.0,0 STARLINK-5079,1 53999U 22125AM  24084.95899510  .00005512  00000-0  36397-3 0  9995,2 53999  53.2175 182.5924 0001730 103.5467 256.5718 15.08858912 81637,6917.823,95.436,540.884,538.491,0.0
53999.0,STARLINK-5079,PAYLOAD,2024-03-25 13:19:25,15.08850247,0.0001753,53.2176,179.9157,111.0387,249.0793,0.00022172,3.243e-05,0.0,0 STARLINK-5079,1 53999U 22125AM  24085.55515533  .00003243  00000-0  22172-3 0  9997,2 53999  53.2176 179.9157 0001753 111.0387 249.0793 15.08850247 81729,6917.849,95.437,540.927,538.501,0.0
53999.0,STARLINK-5079,PAYLOAD,2024-03-26 05:13:18,15.08813737,0.0001712,53.2172,176.9398,101.7806,258.3378,0.00039455,5.992e-05,0.0,0 STARLINK-5079,1 53999U 22125AM  24086.21757546  .00005992  00000-0  39455-3 0  9998,2 53999  53.2172 176.9398 0001712 101.7806 258.3378 15.08813737 81822,6917.961,95.439,541.01,538.641,0.0
53999.0,STARLINK-5079,PAYLOAD,2024-03-26 13:10:14,15.08805368,0.0001502,53.2168,175.4522,88.9446,271.1718,6.3366e-05,7.2e-06,0.0,0 STARLINK-5079,1 53999U 22125AM  24086.54878472  .00000720  00000-0  63366-4 0  9999,2 53999  53.2168 175.4522 0001502  88.9446 271.1718 15.08805368 81870,6917.986,95.44,540.89,538.812,0.0
53999.0,STARLINK-5079,PAYLOAD,2024-03-26 22:42:35,15.08771938,0.0001736,53.2164,173.6701,101.1619,258.9568,-0.00062716,-0.00010237,0.0,0 STARLINK-5079,1 53999U 22125AM  24086.94624832 -.00010237  00000-0 -62716-3 0  9995,2 53999  53.2164 173.6701 0001736 101.1619 258.9568 15.08771938 81864,6918.088,95.442,541.154,538.752,0.0
53999.0,STARLINK-5079,PAYLOAD,2024-03-27 13:01:03,15.08838391,0.0001822,53.216,170.9942,93.5289,266.5912,0.0013704,0.00021588,0.0,0 STARLINK-5079,1 53999U 22125AM  24087.54240412  .00021588  00000-0  13704-2 0  9991,2 53999  53.2160 170.9942 0001822  93.5289 266.5912 15.08838391 82024,6917.885,95.438,541.011,538.49,0.0
53999.0,STARLINK-5079,PAYLOAD,2024-03-28 12:51:48,15.08877746,0.000152,53.2152,166.5329,92.272,267.8446,0.00083284,0.00013005,0.0,0 STARLINK-5079,1 53999U 22125AM  24088.53598239  .00013005  00000-0  83284-3 0  9990,2 53999  53.2152 166.5329 0001520  92.2720 267.8446 15.08877746 82108,6917.765,95.435,540.682,538.579,0.0
53999.0,STARLINK-5079,PAYLOAD,2024-03-28 22:24:06,15.08873521,0.0001463,53.2157,164.7478,103.3397,256.7759,0.00014836,2.076e-05,0.0,0 STARLINK-5079,1 53999U 22125AM  24088.93341373  .00002076  00000-0  14836-3 0  9992,2 53999  53.2157 164.7478 0001463 103.3397 256.7759 15.08873521 82165,6917.778,95.435,540.655,538.631,0.0
53999.0,STARLINK-5079,PAYLOAD,2024-03-29 04:45:39,15.08857963,0.0001647,53.2161,163.5586,95.6014,264.5166,-0.00020908,-3.616e-05,0.0,0 STARLINK-5079,1 53999U 22125AM  24089.19837414 -.00003616  00000-0 -20908-3 0  9997,2 53999  53.2161 163.5586 0001647  95.6014 264.5166 15.08857963 82273,6917.825,95.436,540.83,538.551,0.0
53999.0,STARLINK-5079,PAYLOAD,2024-03-29 11:07:11,15.08861844,0.0001454,53.2148,162.3698,96.655,263.4607,-1.8514e-05,-5.83e-06,0.0,0 STARLINK-5079,1 53999U 22125AM  24089.46332901 -.00000583  00000-0 -18514-4 0  9999,2 53999  53.2148 162.3698 0001454  96.6550 263.4607 15.08861844 82249,6917.814,95.436,540.684,538.673,0.0
53999.0,STARLINK-5079,PAYLOAD,2024-03-29 22:14:53,15.08856332,0.0001386,53.2143,160.2875,87.9098,272.2053,0.00010239,1.343e-05,0.0,0 STARLINK-5079,1 53999U 22125AM  24089.92700723  .00001343  00000-0  10239-3 0  9999,2 53999  53.2143 160.2875 0001386  87.9098 272.2053 15.08856332 82319,6917.83,95.437,540.654,538.737,0.0
53999.0,STARLINK-5079,PAYLOAD,2024-03-30 10:57:58,15.08847559,0.0001602,53.2167,157.9088,93.489,266.6285,6.6738e-06,-1.82e-06,0.0,0 STARLINK-5079,1 53999U 22125AM  24090.45692969 -.00000182  00000-0  66738-5 0  9999,2 53999  53.2167 157.9088 0001602  93.4890 266.6285 15.08847559 82468,6917.857,95.437,540.831,538.614,0.0
53999.0,STARLINK-5079,PAYLOAD,2024-03-31 13:59:31,15.08849187,0.000142,53.2144,152.8528,90.4369,269.6786,0.00022399,3.28e-05,0.0,0 STARLINK-5079,1 53999U 22125AM  24091.58300808  .00003280  00000-0  22399-3 0  9996,2 53999  53.2144 152.8528 0001420  90.4369 269.6786 15.08849187 82561,6917.852,95.437,540.7,538.735,0.0
53999.0,STARLINK-5079,PAYLOAD,2024-04-01 10:39:30,15.08858803,0.0001949,53.2166,148.9871,99.1703,260.9509,3.4309e-05,2.58e-06,0.0,0 STARLINK-5079,1 53999U 22125AM  24092.44410637  .00000258  00000-0  34309-4 0  9991,2 53999  53.2166 148.9871 0001949  99.1703 260.9509 15.08858803 82760,6917.823,95.436,541.036,538.34,0.0
53999.0,STARLINK-5079,PAYLOAD,2024-04-01 20:11:50,15.08834687,0.0001443,53.2152,147.2052,94.637,265.4787,-0.00038126,-6.35e-05,0.0,0 STARLINK-5079,1 53999U 22125AM  24092.84156040 -.00006350  00000-0 -38126-3 0  9991,2 53999  53.2152 147.2052 0001443  94.6370 265.4787 15.08834687 82826,6917.897,95.438,540.76,538.763,0.0
53999.0,STARLINK-5079,PAYLOAD,2024-04-02 10:30:19,15.08832552,0.000145,53.2158,144.5285,95.1569,264.9589,0.0002787,4.149e-05,0.0,0 STARLINK-5079,1 53999U 22125AM  24093.43772197  .00004149  00000-0  27870-3 0  9990,2 53999  53.2158 144.5285 0001450  95.1569 264.9589 15.08832552 82849,6917.903,95.438,540.771,538.765,0.0
53999.0,STARLINK-5079,PAYLOAD,2024-04-02 20:02:38,15.08827027,0.0001437,53.216,142.7441,95.6098,264.5058,0.00044539,6.805e-05,0.0,0 STARLINK-5079,1 53999U 22125AM  24093.83516788  .00006805  00000-0  44539-3 0  9998,2 53999  53.2160 142.7441 0001437  95.6098 264.5058 15.08827027 82908,6917.92,95.438,540.779,538.791,0.0
53999.0,STARLINK-5079,PAYLOAD,2024-04-03 03:59:34,15.08828178,0.0001456,53.2162,141.257,94.587,265.5288,0.00031889,4.789e-05,0.0,0 STARLINK-5079,1 53999U 22125AM  24094.16637076  .00004789  00000-0  31889-3 0  9992,2 53999  53.2162 141.2570 0001456  94.5870 265.5288 15.08828178 83022,6917.917,95.438,540.789,538.774,0.0
53999.0,STARLINK-5079,PAYLOAD,2024-04-03 11:56:30,15.08831124,0.0001433,53.2158,139.7703,95.0344,265.0812,0.00031358,4.705e-05,0.0,0 STARLINK-5079,1 53999U 22125AM  24094.49757264  .00004705  00000-0  31358-3 0  9999,2 53999  53.2158 139.7703 0001433  95.0344 265.0812 15.08831124 83005,6917.908,95.438,540.764,538.781,0.0
53999.0,STARLINK-5079,PAYLOAD,2024-04-03 19:53:26,15.08834563,0.0001425,53.2158,138.2835,94.4161,265.6994,0.00031244,4.687e-05,0.0,0 STARLINK-5079,1 53999U 22125AM  24094.82877379  .00004687  00000-0  31244-3 0  9999,2 53999  53.2158 138.2835 0001425  94.4161 265.6994 15.08834563 83058,6917.897,95.438,540.748,538.776,0.0
53999.0,STARLINK-5079,PAYLOAD,2024-04-04 11:47:17,15.08838382,0.0001422,53.2155,135.3097,92.2661,267.8494,0.00026469,3.927e-05,0.0,0 STARLINK-5079,1 53999U 22125AM  24095.49117549  .00003927  00000-0  26469-3 0  9998,2 53999  53.2155 135.3097 0001422  92.2661 267.8494 15.08838382 83222,6917.885,95.438,540.734,538.767,0.0
53999.0,STARLINK-5079,PAYLOAD,2024-04-04 19:44:13,15.0884189,0.000142,53.2154,133.8226,89.9499,270.1656,0.00028887,4.313e-05,0.0,0 STARLINK-5079,1 53999U 22125AM  24095.82237534  .00004313  00000-0  28887-3 0  9998,2 53999  53.2154 133.8226 0001420  89.9499 270.1656 15.08841890 83201,6917.875,95.437,540.722,538.757,0.0
